{"type": "FeatureCollection", "features": [{"type": "Feature", "properties": {"norad_id": 24876, "name": "GPS BIIR-2  (PRN 13)", "group": "gps-ops", "lat": 32.94831085362292, "lon": 131.92459005937988, "alt_km": 19931.09827039715, "timestamp": "2025-12-11T18:59:46.331721+00:00", "meta": {"OBJECT_NAME": "GPS BIIR-2  (PRN 13)", "OBJECT_ID": "1997-035A", "EPOCH": "2025-12-10T17:43:14.126880", "MEAN_MOTION": 2.00563589, "ECCENTRICITY": 0.0096757, "INCLINATION": 55.8943, "RA_OF_ASC_NODE": 105.9471, "ARG_OF_PERICENTER": 57.0036, "MEAN_ANOMALY": 303.9018, "EPHEMERIS_TYPE": 0, "CLASSIFICATION_TYPE": "U", "NORAD_CAT_ID": 24876, "ELEMENT_SET_NO": 999, "REV_AT_EPOCH": 20817, "BSTAR": 0, "MEAN_MOTION_DOT": 2.2e-07, "MEAN_MOTION_DDOT": 0}, "tle": {"line1": "1 24876U 97035A   25344.73835795  .00000022  00000+0  00000+0 0  9998", "line2": "2 24876  55.8943 105.9471 0096757  57.0036 303.9018  2.00563589208175"}}, "geometry": {"type": "Point", "coordinates": [131.92459005937988, 32.94831085362292]}}, {"type": "Feature", "properties": {"norad_id": 26360, "name": "GPS BIIR-4  (PRN 20)", "group": "gps-ops", "lat": 36.942906778633024, "lon": 175.17434133192063, "alt_km": 20210.673199221917, "timestamp": "2025-12-11T18:59:46.331757+00:00", "meta": {"OBJECT_NAME": "GPS BIIR-4  (PRN 20)", "OBJECT_ID": "2000-025A", "EPOCH": "2025-12-11T02:52:32.652768", "MEAN_MOTION": 2.00567805, "ECCENTRICITY": 0.00388615, "INCLINATION": 55.0442, "RA_OF_ASC_NODE": 26.9033, "ARG_OF_PERICENTER": 241.8363, "MEAN_ANOMALY": 126.4257, "EPHEMERIS_TYPE": 0, "CLASSIFICATION_TYPE": "U", "NORAD_CAT_ID": 26360, "ELEMENT_SET_NO": 999, "REV_AT_EPOCH": 18750, "BSTAR": 0, "MEAN_MOTION_DOT": -9.9e-07, "MEAN_MOTION_DDOT": 0}, "tle": {"line1": "1 26360U 00025A   25345.11982237 -.00000099  00000+0  00000+0 0  9993", "line2": "2 26360  55.0442  26.9033 0038861 241.8363 126.4257  2.00567805187506"}}, "geometry": {"type": "Point", "coordinates": [175.17434133192063, 36.942906778633024]}}, {"type": "Feature", "properties": {"norad_id": 26407, "name": "GPS BIIR-5  (PRN 22)", "group": "gps-ops", "lat": -21.373504625097492, "lon": -153.3549067116932, "alt_km": 19899.05663742615, "timestamp": "2025-12-11T18:59:46.331790+00:00", "meta": {"OBJECT_NAME": "GPS BIIR-5  (PRN 22)", "OBJECT_ID": "2000-040A", "EPOCH": "2025-12-10T20:12:24.039360", "MEAN_MOTION": 2.00567911, "ECCENTRICITY": 0.01261207, "INCLINATION": 54.8911, "RA_OF_ASC_NODE": 222.6445, "ARG_OF_PERICENTER": 301.7739, "MEAN_ANOMALY": 65.4404, "EPHEMERIS_TYPE": 0, "CLASSIFICATION_TYPE": "U", "NORAD_CAT_ID": 26407, "ELEMENT_SET_NO": 999, "REV_AT_EPOCH": 18617, "BSTAR": 0, "MEAN_MOTION_DOT": 0, "MEAN_MOTION_DDOT": 0}, "tle": {"line1": "1 26407U 00040A   25344.84194490  .00000000  00000+0  00000+0 0  9998", "line2": "2 26407  54.8911 222.6445 0126120 301.7739  65.4404  2.00567911186173"}}, "geometry": {"type": "Point", "coordinates": [-153.3549067116932, -21.373504625097492]}}, {"type": "Feature", "properties": {"norad_id": 27663, "name": "GPS BIIR-8  (PRN 16)", "group": "gps-ops", "lat": 50.21240040639742, "lon": -15.044619269284267, "alt_km": 19965.90457568834, "timestamp": "2025-12-11T18:59:46.331806+00:00", "meta": {"OBJECT_NAME": "GPS BIIR-8  (PRN 16)", "OBJECT_ID": "2003-005A", "EPOCH": "2025-12-10T07:26:08.155104", "MEAN_MOTION": 2.00571007, "ECCENTRICITY": 0.0147361, "INCLINATION": 54.9239, "RA_OF_ASC_NODE": 222.475, "ARG_OF_PERICENTER": 51.7666, "MEAN_ANOMALY": 67.0717, "EPHEMERIS_TYPE": 0, "CLASSIFICATION_TYPE": "U", "NORAD_CAT_ID": 27663, "ELEMENT_SET_NO": 999, "REV_AT_EPOCH": 16752, "BSTAR": 0, "MEAN_MOTION_DOT": 1e-08, "MEAN_MOTION_DDOT": 0}, "tle": {"line1": "1 27663U 03005A   25344.30981661  .00000001  00000+0  00000+0 0  9993", "line2": "2 27663  54.9239 222.4750 0147361  51.7666  67.0717  2.00571007167524"}}, "geometry": {"type": "Point", "coordinates": [-15.044619269284267, 50.21240040639742]}}, {"type": "Feature", "properties": {"norad_id": 28190, "name": "GPS BIIR-11 (PRN 19)", "group": "gps-ops", "lat": -54.98072696232235, "lon": -168.94171957445874, "alt_km": 20241.059325111604, "timestamp": "2025-12-11T18:59:46.331820+00:00", "meta": {"OBJECT_NAME": "GPS BIIR-11 (PRN 19)", "OBJECT_ID": "2004-009A", "EPOCH": "2025-12-10T22:23:41.078112", "MEAN_MOTION": 2.00560808, "ECCENTRICITY": 0.0108323, "INCLINATION": 54.9873, "RA_OF_ASC_NODE": 283.2917, "ARG_OF_PERICENTER": 167.6172, "MEAN_ANOMALY": 200.0934, "EPHEMERIS_TYPE": 0, "CLASSIFICATION_TYPE": "U", "NORAD_CAT_ID": 28190, "ELEMENT_SET_NO": 999, "REV_AT_EPOCH": 15917, "BSTAR": 0, "MEAN_MOTION_DOT": -6.8e-07, "MEAN_MOTION_DDOT": 0}, "tle": {"line1": "1 28190U 04009A   25344.93311433 -.00000068  00000+0  00000+0 0  9991", "line2": "2 28190  54.9873 283.2917 0108323 167.6172 200.0934  2.00560808159177"}}, "geometry": {"type": "Point", "coordinates": [-168.94171957445874, -54.98072696232235]}}, {"type": "Feature", "properties": {"norad_id": 28474, "name": "GPS BIIR-13 (PRN 02)", "group": "gps-ops", "lat": -25.63707949358139, "lon": -47.02685122469857, "alt_km": 19755.484434022434, "timestamp": "2025-12-11T18:59:46.331833+00:00", "meta": {"OBJECT_NAME": "GPS BIIR-13 (PRN 02)", "OBJECT_ID": "2004-045A", "EPOCH": "2025-12-10T20:11:07.899360", "MEAN_MOTION": 2.00569385, "ECCENTRICITY": 0.0170728, "INCLINATION": 55.2416, "RA_OF_ASC_NODE": 332.4821, "ARG_OF_PERICENTER": 309.1641, "MEAN_ANOMALY": 52.133, "EPHEMERIS_TYPE": 0, "CLASSIFICATION_TYPE": "U", "NORAD_CAT_ID": 28474, "ELEMENT_SET_NO": 999, "REV_AT_EPOCH": 15465, "BSTAR": 0, "MEAN_MOTION_DOT": -8.5e-07, "MEAN_MOTION_DDOT": 0}, "tle": {"line1": "1 28474U 04045A   25344.84106365 -.00000085  00000+0  00000+0 0  9991", "line2": "2 28474  55.2416 332.4821 0170728 309.1641  52.1330  2.00569385154655"}}, "geometry": {"type": "Point", "coordinates": [-47.02685122469857, -25.63707949358139]}}, {"type": "Feature", "properties": {"norad_id": 28874, "name": "GPS BIIRM-1 (PRN 17)", "group": "gps-ops", "lat": -51.89245315000131, "lon": -142.29805956555333, "alt_km": 19839.358479051778, "timestamp": "2025-12-11T18:59:46.331846+00:00", "meta": {"OBJECT_NAME": "GPS BIIRM-1 (PRN 17)", "OBJECT_ID": "2005-038A", "EPOCH": "2025-12-10T14:00:21.521088", "MEAN_MOTION": 2.00578486, "ECCENTRICITY": 0.0131701, "INCLINATION": 55.0338, "RA_OF_ASC_NODE": 280.7877, "ARG_OF_PERICENTER": 293.4518, "MEAN_ANOMALY": 200.7371, "EPHEMERIS_TYPE": 0, "CLASSIFICATION_TYPE": "U", "NORAD_CAT_ID": 28874, "ELEMENT_SET_NO": 999, "REV_AT_EPOCH": 14805, "BSTAR": 0, "MEAN_MOTION_DOT": -6.4e-07, "MEAN_MOTION_DDOT": 0}, "tle": {"line1": "1 28874U 05038A   25344.58358242 -.00000064  00000+0  00000+0 0  9999", "line2": "2 28874  55.0338 280.7877 0131701 293.4518 200.7371  2.00578486148057"}}, "geometry": {"type": "Point", "coordinates": [-142.29805956555333, -51.89245315000131]}}, {"type": "Feature", "properties": {"norad_id": 29486, "name": "GPS BIIRM-2 (PRN 31)", "group": "gps-ops", "lat": -8.555420442290316, "lon": -15.105877633467061, "alt_km": 20396.671795683153, "timestamp": "2025-12-11T18:59:46.331859+00:00", "meta": {"OBJECT_NAME": "GPS BIIRM-2 (PRN 31)", "OBJECT_ID": "2006-042A", "EPOCH": "2025-12-10T18:35:54.518784", "MEAN_MOTION": 2.00554204, "ECCENTRICITY": 0.010736, "INCLINATION": 54.6939, "RA_OF_ASC_NODE": 158.8186, "ARG_OF_PERICENTER": 51.9152, "MEAN_ANOMALY": 123.7475, "EPHEMERIS_TYPE": 0, "CLASSIFICATION_TYPE": "U", "NORAD_CAT_ID": 29486, "ELEMENT_SET_NO": 999, "REV_AT_EPOCH": 14061, "BSTAR": 0, "MEAN_MOTION_DOT": 8e-07, "MEAN_MOTION_DDOT": 0}, "tle": {"line1": "1 29486U 06042A   25344.77493656  .00000080  00000+0  00000+0 0  9992", "line2": "2 29486  54.6939 158.8186 0107360  51.9152 123.7475  2.00554204140617"}}, "geometry": {"type": "Point", "coordinates": [-15.105877633467061, -8.555420442290316]}}, {"type": "Feature", "properties": {"norad_id": 29601, "name": "GPS BIIRM-3 (PRN 12)", "group": "gps-ops", "lat": -49.1830758601762, "lon": 95.68975458023041, "alt_km": 20405.642982100413, "timestamp": "2025-12-11T18:59:46.331872+00:00", "meta": {"OBJECT_NAME": "GPS BIIRM-3 (PRN 12)", "OBJECT_ID": "2006-052A", "EPOCH": "2025-12-09T22:55:07.366368", "MEAN_MOTION": 2.00573319, "ECCENTRICITY": 0.00877524, "INCLINATION": 54.9712, "RA_OF_ASC_NODE": 221.5087, "ARG_OF_PERICENTER": 87.406, "MEAN_ANOMALY": 273.6761, "EPHEMERIS_TYPE": 0, "CLASSIFICATION_TYPE": "U", "NORAD_CAT_ID": 29601, "ELEMENT_SET_NO": 999, "REV_AT_EPOCH": 13961, "BSTAR": 0, "MEAN_MOTION_DOT": 3e-08, "MEAN_MOTION_DDOT": 0}, "tle": {"line1": "1 29601U 06052A   25343.95494637  .00000003  00000+0  00000+0 0  9996", "line2": "2 29601  54.9712 221.5087 0087752  87.4060 273.6761  2.00573319139619"}}, "geometry": {"type": "Point", "coordinates": [95.68975458023041, -49.1830758601762]}}, {"type": "Feature", "properties": {"norad_id": 32260, "name": "GPS BIIRM-4 (PRN 15)", "group": "gps-ops", "lat": 20.482947929410265, "lon": 103.5610520937972, "alt_km": 19953.67009579363, "timestamp": "2025-12-11T18:59:46.331885+00:00", "meta": {"OBJECT_NAME": "GPS BIIRM-4 (PRN 15)", "OBJECT_ID": "2007-047A", "EPOCH": "2025-12-10T06:15:19.310688", "MEAN_MOTION": 2.00564571, "ECCENTRICITY": 0.0164232, "INCLINATION": 53.9536, "RA_OF_ASC_NODE": 87.861, "ARG_OF_PERICENTER": 85.2178, "MEAN_ANOMALY": 276.6503, "EPHEMERIS_TYPE": 0, "CLASSIFICATION_TYPE": "U", "NORAD_CAT_ID": 32260, "ELEMENT_SET_NO": 999, "REV_AT_EPOCH": 13302, "BSTAR": 0, "MEAN_MOTION_DOT": -1.7e-07, "MEAN_MOTION_DDOT": 0}, "tle": {"line1": "1 32260U 07047A   25344.26064017 -.00000017  00000+0  00000+0 0  9992", "line2": "2 32260  53.9536  87.8610 0164232  85.2178 276.6503  2.00564571133023"}}, "geometry": {"type": "Point", "coordinates": [103.5610520937972, 20.482947929410265]}}]}